TYVAK-0172              
1 46267U 20059C   26068.62538449  .00278441  00000+0  21652-2 0  9997
2 46267  97.7214 311.0561 0003543  67.1132 293.0503 15.70916107303116
STARLINK-11200 [DTC]    
1 60310U 24133K   26068.40674738  .00011142  00000+0  96699-4 0  9995
2 60310  53.1569 147.3233 0000990  83.6836 276.4295 15.69709557 93692
